[{"OBJECT_NAME":"STARLINK-31801","OBJECT_ID":"2024-082S","EPOCH":"2026-03-09T05:04:30.581184","MEAN_MOTION":15.27548792,"ECCENTRICITY":7.635e-5,"INCLINATION":43.0017,"RA_OF_ASC_NODE":142.9476,"ARG_OF_PERICENTER":260.5473,"MEAN_ANOMALY":99.5293,"EPHEMERIS_TYPE":0,"CLASSIFICATION_TYPE":"U","NORAD_CAT_ID":59647,"ELEMENT_SET_NO":999,"REV_AT_EPOCH":10478,"BSTAR":0.00026306921,"MEAN_MOTION_DOT":6.977e-5,"MEAN_MOTION_DDOT":0},{"OBJECT_NAME":"BANDWAGON-4 OBJECT N","OBJECT_ID":"2025-248N","EPOCH":"2026-03-09T00:44:39.250176","MEAN_MOTION":15.24369076,"ECCENTRICITY":0.00135211,"INCLINATION":45.4084,"RA_OF_ASC_NODE":294.9612,"ARG_OF_PERICENTER":206.7837,"MEAN_ANOMALY":153.2354,"EPHEMERIS_TYPE":0,"CLASSIFICATION_TYPE":"U","NORAD_CAT_ID":66305,"ELEMENT_SET_NO":999,"REV_AT_EPOCH":1717,"BSTAR":0.00097341364,"MEAN_MOTION_DOT":0.00024115,"MEAN_MOTION_DDOT":0}]
